{"type": "FeatureCollection", "features": [ {"type": "Feature", "properties": {"norad_id": 40534, "name": "GPS BIIF-9  (PRN 26)", "group": "gps-ops", "lat": -50.09557410424179, "lon": 95.56880705925167, "alt_km": 20419.64175545511, "timestamp": "2025-12-08T10:52:03.206340+00:00", "meta": {"OBJECT_NAME": "GPS BIIF-9  (PRN 26)", "OBJECT_ID": "2015-013A", "EPOCH": "2025-12-07T14:28:59.851200", "MEAN_MOTION": 2.00562814, "ECCENTRICITY": 0.01068213, "INCLINATION": 53.1985, "RA_OF_ASC_NODE": 212.103, "ARG_OF_PERICENTER": 38.3543, "MEAN_ANOMALY": 322.4903, "EPHEMERIS_TYPE": 0, "CLASSIFICATION_TYPE": "U", "NORAD_CAT_ID": 40534, "ELEMENT_SET_NO": 999, "REV_AT_EPOCH": 7798, "BSTAR": 0, "MEAN_MOTION_DOT": 3.4e-07, "MEAN_MOTION_DDOT": 0}, "tle": {"line1": "1 40534U 15013A   25341.60347050  .00000034  00000+0  00000+0 0  9991", "line2": "2 40534  53.1985 212.1030 0106821  38.3543 322.4903  2.00562814 77984"}}, "geometry": {"type": "Point", "coordinates": [95.56880705925167, -50.09557410424179]}}, {"type": "Feature", "properties": {"norad_id": 40730, "name": "GPS BIIF-10 (PRN 08)", "group": "gps-ops", "lat": 32.43776621181699, "lon": 67.60410163020453, "alt_km": 20284.880797483343, "timestamp": "2025-12-08T10:52:03.206353+00:00", "meta": {"OBJECT_NAME": "GPS BIIF-10 (PRN 08)", "OBJECT_ID": "2015-033A", "EPOCH": "2025-12-07T18:21:19.521792", "MEAN_MOTION": 2.00565772, "ECCENTRICITY": 0.0110644, "INCLINATION": 54.1351, "RA_OF_ASC_NODE": 274.9776, "ARG_OF_PERICENTER": 26.6875, "MEAN_ANOMALY": 333.8934, "EPHEMERIS_TYPE": 0, "CLASSIFICATION_TYPE": "U", "NORAD_CAT_ID": 40730, "ELEMENT_SET_NO": 999, "REV_AT_EPOCH": 7615, "BSTAR": 0, "MEAN_MOTION_DOT": -3.6e-07, "MEAN_MOTION_DDOT": 0}, "tle": {"line1": "1 40730U 15033A   25341.76480928 -.00000036  00000+0  00000+0 0  9993", "line2": "2 40730  54.1351 274.9776 0110644  26.6875 333.8934  2.00565772 76153"}}, "geometry": {"type": "Point", "coordinates": [67.60410163020453, 32.43776621181699]}}, {"type": "Feature", "properties": {"norad_id": 41019, "name": "GPS BIIF-11 (PRN 10)", "group": "gps-ops", "lat": 56.77555853028483, "lon": 132.02621876626264, "alt_km": 20391.780270430103, "timestamp": "2025-12-08T10:52:03.206366+00:00", "meta": {"OBJECT_NAME": "GPS BIIF-11 (PRN 10)", "OBJECT_ID": "2015-062A", "EPOCH": "2025-12-07T07:48:52.356672", "MEAN_MOTION": 2.00566963, "ECCENTRICITY": 0.01106642, "INCLINATION": 56.8282, "RA_OF_ASC_NODE": 38.2118, "ARG_OF_PERICENTER": 229.7833, "MEAN_ANOMALY": 129.2989, "EPHEMERIS_TYPE": 0, "CLASSIFICATION_TYPE": "U", "NORAD_CAT_ID": 41019, "ELEMENT_SET_NO": 999, "REV_AT_EPOCH": 7398, "BSTAR": 0, "MEAN_MOTION_DOT": -7.2e-07, "MEAN_MOTION_DDOT": 0}, "tle": {"line1": "1 41019U 15062A   25341.32560598 -.00000072  00000+0  00000+0 0  9990", "line2": "2 41019  56.8282  38.2118 0110664 229.7833 129.2989  2.00566963 73987"}}, "geometry": {"type": "Point", "coordinates": [132.02621876626264, 56.77555853028483]}}, {"type": "Feature", "properties": {"norad_id": 41328, "name": "GPS BIIF-12 (PRN 32)", "group": "gps-ops", "lat": 27.403450816037406, "lon": 117.9623578532101, "alt_km": 20391.055084953754, "timestamp": "2025-12-08T10:52:03.206377+00:00", "meta": {"OBJECT_NAME": "GPS BIIF-12 (PRN 32)", "OBJECT_ID": "2016-007A", "EPOCH": "2025-12-07T09:47:29.747616", "MEAN_MOTION": 2.00560863, "ECCENTRICITY": 0.0091895, "INCLINATION": 55.4032, "RA_OF_ASC_NODE": 97.0687, "ARG_OF_PERICENTER": 243.44, "MEAN_ANOMALY": 115.5952, "EPHEMERIS_TYPE": 0, "CLASSIFICATION_TYPE": "U", "NORAD_CAT_ID": 41328, "ELEMENT_SET_NO": 999, "REV_AT_EPOCH": 7199, "BSTAR": 0, "MEAN_MOTION_DOT": -4e-08, "MEAN_MOTION_DDOT": 0}, "tle": {"line1": "1 41328U 16007A   25341.40798319 -.00000004  00000+0  00000+0 0  9991", "line2": "2 41328  55.4032  97.0687 0091895 243.4400 115.5952  2.00560863 71999"}}, "geometry": {"type": "Point", "coordinates": [117.9623578532101, 27.403450816037406]}}, {"type": "Feature", "properties": {"norad_id": 43873, "name": "GPS BIII-1  (PRN 04)", "group": "gps-ops", "lat": -51.40156990056765, "lon": 40.56046513099036, "alt_km": 20195.224848576087, "timestamp": "2025-12-08T10:52:03.206389+00:00", "meta": {"OBJECT_NAME": "GPS BIII-1  (PRN 04)", "OBJECT_ID": "2018-109A", "EPOCH": "2025-12-07T19:01:44.970240", "MEAN_MOTION": 2.00553303, "ECCENTRICITY": 0.00371945, "INCLINATION": 55.5649, "RA_OF_ASC_NODE": 99.742, "ARG_OF_PERICENTER": 194.7873, "MEAN_ANOMALY": 336.926, "EPHEMERIS_TYPE": 0, "CLASSIFICATION_TYPE": "U", "NORAD_CAT_ID": 43873, "ELEMENT_SET_NO": 999, "REV_AT_EPOCH": 5123, "BSTAR": 0, "MEAN_MOTION_DOT": 3e-08, "MEAN_MOTION_DDOT": 0}, "tle": {"line1": "1 43873U 18109A   25341.79288160  .00000003  00000+0  00000+0 0  9991", "line2": "2 43873  55.5649  99.7420 0037194 194.7873 336.9260  2.00553303 51236"}}, "geometry": {"type": "Point", "coordinates": [40.56046513099036, -51.40156990056765]}}, {"type": "Feature", "properties": {"norad_id": 44506, "name": "GPS BIII-2  (PRN 18)", "group": "gps-ops", "lat": -4.0205572435130215, "lon": 161.4632764198474, "alt_km": 20033.994524552847, "timestamp": "2025-12-08T10:52:03.206402+00:00", "meta": {"OBJECT_NAME": "GPS BIII-2  (PRN 18)", "OBJECT_ID": "2019-056A", "EPOCH": "2025-12-07T10:30:03.799008", "MEAN_MOTION": 2.00565766, "ECCENTRICITY": 0.00577762, "INCLINATION": 55.723, "RA_OF_ASC_NODE": 338.7627, "ARG_OF_PERICENTER": 198.4737, "MEAN_ANOMALY": 333.4267, "EPHEMERIS_TYPE": 0, "CLASSIFICATION_TYPE": "U", "NORAD_CAT_ID": 44506, "ELEMENT_SET_NO": 999, "REV_AT_EPOCH": 4622, "BSTAR": 0, "MEAN_MOTION_DOT": -8.3e-07, "MEAN_MOTION_DDOT": 0}, "tle": {"line1": "1 44506U 19056A   25341.43754397 -.00000083  00000+0  00000+0 0  9997", "line2": "2 44506  55.7230 338.7627 0057776 198.4737 333.4267  2.00565766 46229"}}, "geometry": {"type": "Point", "coordinates": [161.4632764198474, -4.0205572435130215]}}, {"type": "Feature", "properties": {"norad_id": 45854, "name": "GPS BIII-3  (PRN 23)", "group": "gps-ops", "lat": 40.800126604384374, "lon": -178.39920290216773, "alt_km": 20134.75784759674, "timestamp": "2025-12-08T10:52:03.206413+00:00", "meta": {"OBJECT_NAME": "GPS BIII-3  (PRN 23)", "OBJECT_ID": "2020-041A", "EPOCH": "2025-12-07T06:57:27.444672", "MEAN_MOTION": 2.00561718, "ECCENTRICITY": 0.00603563, "INCLINATION": 56.5433, "RA_OF_ASC_NODE": 36.3977, "ARG_OF_PERICENTER": 203.2104, "MEAN_ANOMALY": 166.2515, "EPHEMERIS_TYPE": 0, "CLASSIFICATION_TYPE": "U", "NORAD_CAT_ID": 45854, "ELEMENT_SET_NO": 999, "REV_AT_EPOCH": 4019, "BSTAR": 0, "MEAN_MOTION_DOT": -7.4e-07, "MEAN_MOTION_DDOT": 0}, "tle": {"line1": "1 45854U 20041A   25341.28990098 -.00000074  00000+0  00000+0 0  9993", "line2": "2 45854  56.5433  36.3977 0060356 203.2104 166.2515  2.00561718 40191"}}, "geometry": {"type": "Point", "coordinates": [-178.39920290216773, 40.800126604384374]}}, {"type": "Feature", "properties": {"norad_id": 46826, "name": "GPS BIII-4  (PRN 14)", "group": "gps-ops", "lat": 53.00499392859608, "lon": -36.006471725495224, "alt_km": 20218.697024238594, "timestamp": "2025-12-08T10:52:03.206425+00:00", "meta": {"OBJECT_NAME": "GPS BIII-4  (PRN 14)", "OBJECT_ID": "2020-078A", "EPOCH": "2025-11-12T03:01:29.191584", "MEAN_MOTION": 2.00567032, "ECCENTRICITY": 0.00639112, "INCLINATION": 54.0223, "RA_OF_ASC_NODE": 219.5836, "ARG_OF_PERICENTER": 203.4986, "MEAN_ANOMALY": 326.7753, "EPHEMERIS_TYPE": 0, "CLASSIFICATION_TYPE": "U", "NORAD_CAT_ID": 46826, "ELEMENT_SET_NO": 999, "REV_AT_EPOCH": 3715, "BSTAR": 0, "MEAN_MOTION_DOT": -3.4e-07, "MEAN_MOTION_DDOT": 0}, "tle": {"line1": "1 46826U 20078A   25316.12603231 -.00000034  00000+0  00000+0 0  9994", "line2": "2 46826  54.0223 219.5836 0063911 203.4986 326.7753  2.00567032 37154"}}, "geometry": {"type": "Point", "coordinates": [-36.006471725495224, 53.00499392859608]}}, {"type": "Feature", "properties": {"norad_id": 48859, "name": "GPS BIII-5  (PRN 11)", "group": "gps-ops", "lat": -52.233152656239255, "lon": -83.4749099379345, "alt_km": 20148.842378324858, "timestamp": "2025-12-08T10:52:03.206437+00:00", "meta": {"OBJECT_NAME": "GPS BIII-5  (PRN 11)", "OBJECT_ID": "2021-054A", "EPOCH": "2025-11-30T17:12:22.002912", "MEAN_MOTION": 2.00553932, "ECCENTRICITY": 0.0024653, "INCLINATION": 55.2606, "RA_OF_ASC_NODE": 340.4377, "ARG_OF_PERICENTER": 232.9477, "MEAN_ANOMALY": 227.2059, "EPHEMERIS_TYPE": 0, "CLASSIFICATION_TYPE": "U", "NORAD_CAT_ID": 48859, "ELEMENT_SET_NO": 999, "REV_AT_EPOCH": 3277, "BSTAR": 0, "MEAN_MOTION_DOT": -5.5e-07, "MEAN_MOTION_DDOT": 0}, "tle": {"line1": "1 48859U 21054A   25334.71692133 -.00000055  00000+0  00000+0 0  9994", "line2": "2 48859  55.2606 340.4377 0024653 232.9477 227.2059  2.00553932 32777"}}, "geometry": {"type": "Point", "coordinates": [-83.4749099379345, -52.233152656239255]}}, {"type": "Feature", "properties": {"norad_id": 55268, "name": "GPS BIII-6  (PRN 28)", "group": "gps-ops", "lat": -25.828201558597513, "lon": 136.25422476503496, "alt_km": 20177.803673173985, "timestamp": "2025-12-08T10:52:03.206448+00:00", "meta": {"OBJECT_NAME": "GPS BIII-6  (PRN 28)", "OBJECT_ID": "2023-009A", "EPOCH": "2025-12-07T12:05:19.826016", "MEAN_MOTION": 2.00556044, "ECCENTRICITY": 0.00036556, "INCLINATION": 55.1047, "RA_OF_ASC_NODE": 156.0508, "ARG_OF_PERICENTER": 357.2022, "MEAN_ANOMALY": 5.4377, "EPHEMERIS_TYPE": 0, "CLASSIFICATION_TYPE": "U", "NORAD_CAT_ID": 55268, "ELEMENT_SET_NO": 999, "REV_AT_EPOCH": 2140, "BSTAR": 0, "MEAN_MOTION_DOT": 5.8e-07, "MEAN_MOTION_DDOT": 0}, "tle": {"line1": "1 55268U 23009A   25341.50370169  .00000058  00000+0  00000+0 0  9997", "line2": "2 55268  55.1047 156.0508 0003655 357.2022   5.4377  2.00556044 21404"}}, "geometry": {"type": "Point", "coordinates": [136.25422476503496, -25.828201558597513]}}]}